{"type": "FeatureCollection", "features": [{"type": "Feature", "properties": {"norad_id": 24876, "name": "GPS BIIR-2  (PRN 13)", "group": "gnss", "lat": -21.205276974678892, "lon": -59.48883709381936, "alt_km": 20404.882890918238, "timestamp": "2025-12-27T11:23:20.139561+00:00", "meta": {"OBJECT_NAME": "GPS BIIR-2  (PRN 13)", "OBJECT_ID": "1997-035A", "EPOCH": "2025-12-26T16:37:51.239424", "MEAN_MOTION": 2.00563658, "ECCENTRICITY": 0.0096861, "INCLINATION": 55.9017, "RA_OF_ASC_NODE": 105.3231, "ARG_OF_PERICENTER": 56.9183, "MEAN_ANOMALY": 304.0095, "EPHEMERIS_TYPE": 0, "CLASSIFICATION_TYPE": "U", "NORAD_CAT_ID": 24876, "ELEMENT_SET_NO": 999, "REV_AT_EPOCH": 20849, "BSTAR": 0, "MEAN_MOTION_DOT": 2.3e-07, "MEAN_MOTION_DDOT": 0}, "tle": {"line1": "1 24876U 97035A   25360.69295416  .00000023  00000+0  00000+0 0  9992", "line2": "2 24876  55.9017 105.3231 0096861  56.9183 304.0095  2.00563658208492"}}, "geometry": {"type": "Point", "coordinates": [-59.48883709381936, -21.205276974678892]}}, {"type": "Feature", "properties": {"norad_id": 26360, "name": "GPS BIIR-4  (PRN 20)", "group": "gnss", "lat": -46.52254662034531, "lon": -21.242857140117533, "alt_km": 20126.607733062847, "timestamp": "2025-12-27T11:23:20.139607+00:00", "meta": {"OBJECT_NAME": "GPS BIIR-4  (PRN 20)", "OBJECT_ID": "2000-025A", "EPOCH": "2025-12-27T03:31:58.663200", "MEAN_MOTION": 2.0056635, "ECCENTRICITY": 0.0038899, "INCLINATION": 55.0538, "RA_OF_ASC_NODE": 26.2552, "ARG_OF_PERICENTER": 243.3579, "MEAN_ANOMALY": 177.6691, "EPHEMERIS_TYPE": 0, "CLASSIFICATION_TYPE": "U", "NORAD_CAT_ID": 26360, "ELEMENT_SET_NO": 999, "REV_AT_EPOCH": 18782, "BSTAR": 0, "MEAN_MOTION_DOT": -5.6e-07, "MEAN_MOTION_DDOT": 0}, "tle": {"line1": "1 26360U 00025A   25361.14720675 -.00000056  00000+0  00000+0 0  9993", "line2": "2 26360  55.0538  26.2552 0038899 243.3579 177.6691  2.00566350187827"}}, "geometry": {"type": "Point", "coordinates": [-21.242857140117533, -46.52254662034531]}}, {"type": "Feature", "properties": {"norad_id": 26407, "name": "GPS BIIR-5  (PRN 22)", "group": "gnss", "lat": 34.11942849237695, "lon": 13.531183175557647, "alt_km": 20498.888380637032, "timestamp": "2025-12-27T11:23:20.139625+00:00", "meta": {"OBJECT_NAME": "GPS BIIR-5  (PRN 22)", "OBJECT_ID": "2000-040A", "EPOCH": "2025-12-27T00:44:30.923808", "MEAN_MOTION": 2.00568073, "ECCENTRICITY": 0.0125245, "INCLINATION": 54.8878, "RA_OF_ASC_NODE": 222.0006, "ARG_OF_PERICENTER": 302.0312, "MEAN_ANOMALY": 234.7403, "EPHEMERIS_TYPE": 0, "CLASSIFICATION_TYPE": "U", "NORAD_CAT_ID": 26407, "ELEMENT_SET_NO": 999, "REV_AT_EPOCH": 18649, "BSTAR": 0, "MEAN_MOTION_DOT": 7.7e-07, "MEAN_MOTION_DDOT": 0}, "tle": {"line1": "1 26407U 00040A   25361.03091347  .00000077  00000+0  00000+0 0  9999", "line2": "2 26407  54.8878 222.0006 0125245 302.0312 234.7403  2.00568073186495"}}, "geometry": {"type": "Point", "coordinates": [13.531183175557647, 34.11942849237695]}}, {"type": "Feature", "properties": {"norad_id": 27663, "name": "GPS BIIR-8  (PRN 16)", "group": "gnss", "lat": -54.8621759596283, "lon": 135.21042680470367, "alt_km": 20486.5611005184, "timestamp": "2025-12-27T11:23:20.139640+00:00", "meta": {"OBJECT_NAME": "GPS BIIR-8  (PRN 16)", "OBJECT_ID": "2003-005A", "EPOCH": "2025-12-26T14:42:29.071008", "MEAN_MOTION": 2.00570063, "ECCENTRICITY": 0.0147921, "INCLINATION": 54.9204, "RA_OF_ASC_NODE": 221.8264, "ARG_OF_PERICENTER": 52.0033, "MEAN_ANOMALY": 318.8923, "EPHEMERIS_TYPE": 0, "CLASSIFICATION_TYPE": "U", "NORAD_CAT_ID": 27663, "ELEMENT_SET_NO": 999, "REV_AT_EPOCH": 16785, "BSTAR": 0, "MEAN_MOTION_DOT": 7.5e-07, "MEAN_MOTION_DDOT": 0}, "tle": {"line1": "1 27663U 03005A   25360.61283647  .00000075  00000+0  00000+0 0  9995", "line2": "2 27663  54.9204 221.8264 0147921  52.0033 318.8923  2.00570063167856"}}, "geometry": {"type": "Point", "coordinates": [135.21042680470367, -54.8621759596283]}}, {"type": "Feature", "properties": {"norad_id": 28190, "name": "GPS BIIR-11 (PRN 19)", "group": "gnss", "lat": 50.33735190727393, "lon": -19.726055143567024, "alt_km": 20212.891510502657, "timestamp": "2025-12-27T11:23:20.139653+00:00", "meta": {"OBJECT_NAME": "GPS BIIR-11 (PRN 19)", "OBJECT_ID": "2004-009A", "EPOCH": "2025-12-27T01:44:09.252384", "MEAN_MOTION": 2.00560169, "ECCENTRICITY": 0.0108623, "INCLINATION": 54.9727, "RA_OF_ASC_NODE": 282.6413, "ARG_OF_PERICENTER": 167.8785, "MEAN_ANOMALY": 332.9978, "EPHEMERIS_TYPE": 0, "CLASSIFICATION_TYPE": "U", "NORAD_CAT_ID": 28190, "ELEMENT_SET_NO": 999, "REV_AT_EPOCH": 15949, "BSTAR": 0, "MEAN_MOTION_DOT": -3.3e-07, "MEAN_MOTION_DDOT": 0}, "tle": {"line1": "1 28190U 04009A   25361.07232931 -.00000033  00000+0  00000+0 0  9992", "line2": "2 28190  54.9727 282.6413 0108623 167.8785 332.9978  2.00560169159492"}}, "geometry": {"type": "Point", "coordinates": [-19.726055143567024, 50.33735190727393]}}, {"type": "Feature", "properties": {"norad_id": 28474, "name": "GPS BIIR-13 (PRN 02)", "group": "gnss", "lat": 37.7482253446711, "lon": 119.28340918564933, "alt_km": 20631.66982389374, "timestamp": "2025-12-27T11:23:20.139667+00:00", "meta": {"OBJECT_NAME": "GPS BIIR-13 (PRN 02)", "OBJECT_ID": "2004-045A", "EPOCH": "2025-12-26T11:00:01.330272", "MEAN_MOTION": 2.00570057, "ECCENTRICITY": 0.0171007, "INCLINATION": 55.2338, "RA_OF_ASC_NODE": 331.8542, "ARG_OF_PERICENTER": 309.865, "MEAN_ANOMALY": 168.2197, "EPHEMERIS_TYPE": 0, "CLASSIFICATION_TYPE": "U", "NORAD_CAT_ID": 28474, "ELEMENT_SET_NO": 999, "REV_AT_EPOCH": 15496, "BSTAR": 0, "MEAN_MOTION_DOT": -5.9e-07, "MEAN_MOTION_DDOT": 0}, "tle": {"line1": "1 28474U 04045A   25360.45834873 -.00000059  00000+0  00000+0 0  9999", "line2": "2 28474  55.2338 331.8542 0171007 309.8650 168.2197  2.00570057154961"}}, "geometry": {"type": "Point", "coordinates": [119.28340918564933, 37.7482253446711]}}, {"type": "Feature", "properties": {"norad_id": 28874, "name": "GPS BIIRM-1 (PRN 17)", "group": "gnss", "lat": 54.997257459128875, "lon": 13.183677884526865, "alt_km": 20496.496164413467, "timestamp": "2025-12-27T11:23:20.139680+00:00", "meta": {"OBJECT_NAME": "GPS BIIRM-1 (PRN 17)", "OBJECT_ID": "2005-038A", "EPOCH": "2025-12-24T20:45:31.120992", "MEAN_MOTION": 2.00577585, "ECCENTRICITY": 0.0131256, "INCLINATION": 55.0211, "RA_OF_ASC_NODE": 280.2128, "ARG_OF_PERICENTER": 293.8377, "MEAN_ANOMALY": 72.9738, "EPHEMERIS_TYPE": 0, "CLASSIFICATION_TYPE": "U", "NORAD_CAT_ID": 28874, "ELEMENT_SET_NO": 999, "REV_AT_EPOCH": 14834, "BSTAR": 0, "MEAN_MOTION_DOT": -2.3e-07, "MEAN_MOTION_DDOT": 0}, "tle": {"line1": "1 28874U 05038A   25358.86494353 -.00000023  00000+0  00000+0 0  9994", "line2": "2 28874  55.0211 280.2128 0131256 293.8377  72.9738  2.00577585148340"}}, "geometry": {"type": "Point", "coordinates": [13.183677884526865, 54.997257459128875]}}, {"type": "Feature", "properties": {"norad_id": 28899, "name": "INMARSAT 4-F2 (SOUTHPAN/PRN 122)", "group": "gnss", "lat": 0.586566401328217, "lon": 50.51364122962261, "alt_km": 35794.023092003175, "timestamp": "2025-12-27T11:23:20.139695+00:00", "meta": {"OBJECT_NAME": "INMARSAT 4-F2 (SOUTHPAN/PRN 122)", "OBJECT_ID": "2005-044A", "EPOCH": "2025-12-25T11:49:38.684640", "MEAN_MOTION": 1.00270481, "ECCENTRICITY": 0.00024771, "INCLINATION": 4.8675, "RA_OF_ASC_NODE": 43.7139, "ARG_OF_PERICENTER": 231.4406, "MEAN_ANOMALY": 140.0074, "EPHEMERIS_TYPE": 0, "CLASSIFICATION_TYPE": "U", "NORAD_CAT_ID": 28899, "ELEMENT_SET_NO": 999, "REV_AT_EPOCH": 7378, "BSTAR": 0, "MEAN_MOTION_DOT": -2.41e-06, "MEAN_MOTION_DDOT": 0}, "tle": {"line1": "1 28899U 05044A   25359.49280885 -.00000241  00000+0  00000+0 0  9993", "line2": "2 28899   4.8675  43.7139 0002477 231.4406 140.0074  1.00270481 73789"}}, "geometry": {"type": "Point", "coordinates": [50.51364122962261, 0.586566401328217]}}, {"type": "Feature", "properties": {"norad_id": 29486, "name": "GPS BIIRM-2 (PRN 31)", "group": "gnss", "lat": -6.489461149789725, "lon": 153.52470414279426, "alt_km": 20040.545672006807, "timestamp": "2025-12-27T11:23:20.139709+00:00", "meta": {"OBJECT_NAME": "GPS BIIRM-2 (PRN 31)", "OBJECT_ID": "2006-042A", "EPOCH": "2025-12-26T12:05:34.202112", "MEAN_MOTION": 2.00553566, "ECCENTRICITY": 0.010727, "INCLINATION": 54.6956, "RA_OF_ASC_NODE": 158.1947, "ARG_OF_PERICENTER": 52.2681, "MEAN_ANOMALY": 319.984, "EPHEMERIS_TYPE": 0, "CLASSIFICATION_TYPE": "U", "NORAD_CAT_ID": 29486, "ELEMENT_SET_NO": 999, "REV_AT_EPOCH": 14093, "BSTAR": 0, "MEAN_MOTION_DOT": 1.08e-06, "MEAN_MOTION_DDOT": 0}, "tle": {"line1": "1 29486U 06042A   25360.50386808  .00000108  00000+0  00000+0 0  9992", "line2": "2 29486  54.6956 158.1947 0107270  52.2681 319.9840  2.00553566140935"}}, "geometry": {"type": "Point", "coordinates": [153.52470414279426, -6.489461149789725]}}, {"type": "Feature", "properties": {"norad_id": 29601, "name": "GPS BIIRM-3 (PRN 12)", "group": "gnss", "lat": 39.61542301764233, "lon": -103.68931529615737, "alt_km": 19987.71434448401, "timestamp": "2025-12-27T11:23:20.139736+00:00", "meta": {"OBJECT_NAME": "GPS BIIRM-3 (PRN 12)", "OBJECT_ID": "2006-052A", "EPOCH": "2025-12-25T21:48:25.793568", "MEAN_MOTION": 2.00574428, "ECCENTRICITY": 0.00879901, "INCLINATION": 54.968, "RA_OF_ASC_NODE": 220.8755, "ARG_OF_PERICENTER": 87.5984, "MEAN_ANOMALY": 273.4866, "EPHEMERIS_TYPE": 0, "CLASSIFICATION_TYPE": "U", "NORAD_CAT_ID": 29601, "ELEMENT_SET_NO": 999, "REV_AT_EPOCH": 13993, "BSTAR": 0, "MEAN_MOTION_DOT": 7.2e-07, "MEAN_MOTION_DDOT": 0}, "tle": {"line1": "1 29601U 06052A   25359.90863187  .00000072  00000+0  00000+0 0  9994", "line2": "2 29601  54.9680 220.8755 0087990  87.5984 273.4866  2.00574428139938"}}, "geometry": {"type": "Point", "coordinates": [-103.68931529615737, 39.61542301764233]}}]}